NORAD_CAT_ID,OBJECT_NAME,OBJECT_TYPE,EPOCH,MEAN_MOTION,ECCENTRICITY,INCLINATION,RA_OF_ASC_NODE,ARG_OF_PERICENTER,MEAN_ANOMALY,BSTAR,MEAN_MOTION_DOT,MEAN_MOTION_DDOT,TLE_LINE0,TLE_LINE1,TLE_LINE2,SEMIMAJOR_AXIS,PERIOD,APOGEE,PERIGEE,DECAYED
56773.0,STARLINK-6296,PAYLOAD,2024-03-27 07:11:45,14.98341431,0.0003214,69.9976,300.7841,276.6555,83.4238,-0.00028584,-3.503e-05,0.0,0 STARLINK-6296,1 56773U 23078G   24087.29983513 -.00003503  00000-0 -28584-3 0  9992,2 56773  69.9976 300.7841 0003214 276.6555  83.4238 14.98341431 47215,6950.158,96.106,574.256,569.789,0.0
56773.0,STARLINK-6296,PAYLOAD,2024-03-27 21:36:58,14.98326739,0.0002599,69.999,299.27,261.8398,98.2466,4.5238e-05,4.47e-06,0.0,0 STARLINK-6296,1 56773U 23078G   24087.90067753  .00000447  00000-0  45238-4 0  9997,2 56773  69.9990 299.2700 0002599 261.8398  98.2466 14.98326739 47045,6950.203,96.107,573.874,570.262,0.0
56773.0,STARLINK-6296,PAYLOAD,2024-03-27 23:13:06,14.98327292,0.0002603,69.9988,299.1014,262.5161,97.5702,6.8196e-05,7.21e-06,0.0,0 STARLINK-6296,1 56773U 23078G   24087.96743680  .00000721  00000-0  68196-4 0  9996,2 56773  69.9988 299.1014 0002603 262.5161  97.5702 14.98327292 47311,6950.201,96.107,573.875,570.257,0.0
56773.0,STARLINK-6296,PAYLOAD,2024-03-28 07:13:45,14.98376132,0.0003115,69.9992,298.2607,261.0225,99.0581,-0.00067445,-8.141e-05,0.0,0 STARLINK-6296,1 56773U 23078G   24088.30122477 -.00008141  00000-0 -67445-3 0  9991,2 56773  69.9992 298.2607 0003115 261.0225  99.0581 14.98376132 47362,6950.05,96.104,574.08,569.75,0.0
56773.0,STARLINK-6296,PAYLOAD,2024-03-28 20:02:50,14.98331802,0.0002732,69.9985,296.9133,267.3213,92.7633,0.0001504,1.702e-05,0.0,0 STARLINK-6296,1 56773U 23078G   24088.83531075  .00001702  00000-0  15040-3 0  9995,2 56773  69.9985 296.9133 0002732 267.3213  92.7633 14.98331802 47445,6950.187,96.107,573.951,570.154,0.0
56773.0,STARLINK-6296,PAYLOAD,2024-03-28 21:38:58,14.98331718,0.0002704,69.9987,296.745,267.0164,93.0685,0.00014996,1.697e-05,0.0,0 STARLINK-6296,1 56773U 23078G   24088.90207074  .00001697  00000-0  14996-3 0  9994,2 56773  69.9987 296.7450 0002704 267.0164  93.0685 14.98331718 47197,6950.188,96.107,573.932,570.173,0.0
56773.0,STARLINK-6296,PAYLOAD,2024-03-29 14:00:01,14.98328859,0.0003116,70.0005,295.0274,267.7472,166.0512,0.001178,0.0001399,0.0,0 STARLINK-6296,1 56773U 23078G   24089.58334491  .00013990  00000-0  11780-2 0  9999,2 56773  70.0005 295.0274 0003116 267.7472 166.0512 14.98328859  5796,6950.196,96.107,574.227,569.896,0.0
56773.0,STARLINK-6296,PAYLOAD,2024-03-29 20:00:01,14.98334161,0.0003158,70.0004,294.397,272.0612,69.8554,-0.0011419,-0.00013693,0.0,0 STARLINK-6296,1 56773U 23078G   24089.83334491 -.00013693  00000-0 -11419-2 0  9998,2 56773  70.0004 294.3970 0003158 272.0612  69.8554 14.98334161 47594,6950.18,96.107,574.24,569.85,0.0
56773.0,STARLINK-6296,PAYLOAD,2024-03-29 22:00:00,14.98322103,0.0003146,70.0005,294.1869,273.4543,157.8365,0.0010212,0.0001211,0.0,0 STARLINK-6296,1 56773U 23078G   24089.91667824  .00012110  00000-0  10212-2 0  9997,2 56773  70.0005 294.1869 0003146 273.4543 157.8365 14.98322103  5848,6950.217,96.108,574.269,569.896,0.0
56773.0,STARLINK-6296,PAYLOAD,2024-03-29 23:17:20,14.98163057,0.0002547,69.9999,294.0516,266.6931,93.3936,-0.001661,-0.0001977,0.0,0 STARLINK-6296,1 56773U 23078G   24089.97037585 -.00019770  00000-0 -16610-2 0  9997,2 56773  69.9999 294.0516 0002547 266.6931  93.3936 14.98163057 47614,6950.709,96.118,574.345,570.804,0.0
56773.0,STARLINK-6296,PAYLOAD,2024-03-30 12:06:13,14.98329291,0.0003368,69.9995,292.7057,269.5688,90.5085,-0.00010923,-1.396e-05,0.0,0 STARLINK-6296,1 56773U 23078G   24090.50431714 -.00001396  00000-0 -10923-3 0  9997,2 56773  69.9995 292.7057 0003368 269.5688  90.5085 14.98329291 47694,6950.195,96.107,574.401,569.719,0.0
56773.0,STARLINK-6296,PAYLOAD,2024-03-30 20:06:52,14.98341502,0.0003434,69.9978,291.8647,271.8807,88.1958,-0.00017861,-2.224e-05,0.0,0 STARLINK-6296,1 56773U 23078G   24090.83811187 -.00002224  00000-0 -17861-3 0  9998,2 56773  69.9978 291.8647 0003434 271.8807  88.1958 14.98341502 47740,6950.157,96.106,574.409,569.636,0.0
56773.0,STARLINK-6296,PAYLOAD,2024-03-30 21:43:00,14.98342041,0.0003432,69.9978,291.6962,271.9076,88.169,-0.000171,-2.134e-05,0.0,0 STARLINK-6296,1 56773U 23078G   24090.90487089 -.00002134  00000-0 -17100-3 0  9992,2 56773  69.9978 291.6962 0003432 271.9076  88.1690 14.98342041 47499,6950.156,96.106,574.406,569.635,0.0
56773.0,STARLINK-6296,PAYLOAD,2024-03-31 13:44:21,14.98329767,0.0003115,69.9982,290.0129,270.928,89.1522,6.5119e-05,6.84e-06,0.0,0 STARLINK-6296,1 56773U 23078G   24091.57247039  .00000684  00000-0  65119-4 0  9995,2 56773  69.9982 290.0129 0003115 270.9280  89.1522 14.98329767 47592,6950.194,96.107,574.224,569.894,0.0
56773.0,STARLINK-6296,PAYLOAD,2024-03-31 20:08:53,14.98332684,0.0003083,69.9993,289.3396,270.7295,89.351,6.3008e-05,6.59e-06,0.0,0 STARLINK-6296,1 56773U 23078G   24091.83950843  .00000659  00000-0  63008-4 0  9995,2 56773  69.9993 289.3396 0003083 270.7295  89.3510 14.98332684 47893,6950.185,96.107,574.192,569.907,0.0
56773.0,STARLINK-6296,PAYLOAD,2024-03-31 21:45:01,14.98333222,0.0003071,69.9993,289.1713,270.7142,89.3665,6.7929e-05,7.18e-06,0.0,0 STARLINK-6296,1 56773U 23078G   24091.90626781  .00000718  00000-0  67929-4 0  9996,2 56773  69.9993 289.1713 0003071 270.7142  89.3665 14.98333222 47645,6950.183,96.107,574.182,569.914,0.0
56773.0,STARLINK-6296,PAYLOAD,2024-04-01 12:10:14,14.9832502,0.0003305,69.9993,287.6565,269.2364,90.8417,6.0716e-05,6.31e-06,0.0,0 STARLINK-6296,1 56773U 23078G   24092.50711150  .00000631  00000-0  60716-4 0  9999,2 56773  69.9993 287.6565 0003305 269.2364  90.8417 14.98325020 47999,6950.208,96.107,574.37,569.776,0.0
56773.0,STARLINK-6296,PAYLOAD,2024-04-01 13:46:22,14.98324873,0.00033,69.9993,287.4882,269.2039,90.8742,5.7992e-05,5.99e-06,0.0,0 STARLINK-6296,1 56773U 23078G   24092.57387179  .00000599  00000-0  57992-4 0  9991,2 56773  69.9993 287.4882 0003300 269.2039  90.8742 14.98324873 47742,6950.209,96.107,574.367,569.78,0.0
56773.0,STARLINK-6296,PAYLOAD,2024-04-01 20:10:55,14.98299576,0.0003035,69.9993,286.8149,263.864,96.2173,0.00051179,6.014e-05,0.0,0 STARLINK-6296,1 56773U 23078G   24092.84091710  .00006014  00000-0  51179-3 0  9992,2 56773  69.9993 286.8149 0003035 263.8640  96.2173 14.98299576 48047,6950.287,96.109,574.261,570.043,0.0
56773.0,STARLINK-6296,PAYLOAD,2024-04-01 23:23:10,14.98325231,0.000317,69.9994,286.4779,264.3398,95.74,0.00012069,1.347e-05,0.0,0 STARLINK-6296,1 56773U 23078G   24092.97443072  .00001347  00000-0  12069-3 0  9997,2 56773  69.9994 286.4779 0003170 264.3398  95.7400 14.98325231 48066,6950.208,96.107,574.276,569.869,0.0
56773.0,STARLINK-6296,PAYLOAD,2024-04-02 13:48:23,14.98332354,0.0002993,69.9992,284.963,268.1783,91.9034,-2.2648e-05,-3.63e-06,0.0,0 STARLINK-6296,1 56773U 23078G   24093.57526925 -.00000363  00000-0 -22648-4 0  9997,2 56773  69.9992 284.9630 0002993 268.1783  91.9034 14.98332354 47890,6950.186,96.107,574.131,569.97,0.0
56773.0,STARLINK-6296,PAYLOAD,2024-04-02 20:12:55,14.98332184,0.0002963,69.9991,284.2896,269.4436,90.6383,-2.3522e-05,-3.74e-06,0.0,0 STARLINK-6296,1 56773U 23078G   24093.84230911 -.00000374  00000-0 -23522-4 0  9998,2 56773  69.9991 284.2896 0002963 269.4436  90.6383 14.98332184 47931,6950.186,96.107,574.11,569.992,0.0
56773.0,STARLINK-6296,PAYLOAD,2024-04-03 05:49:43,14.98330699,0.0002952,69.9991,283.2796,269.4319,90.6502,-1.2889e-05,-2.47e-06,0.0,0 STARLINK-6296,1 56773U 23078G   24094.24286933 -.00000247  00000-0 -12889-4 0  9991,2 56773  69.9991 283.2796 0002952 269.4319  90.6502 14.98330699 48255,6950.191,96.107,574.107,570.004,0.0
56773.0,STARLINK-6296,PAYLOAD,2024-04-03 21:51:04,14.9832956,0.0003003,69.9989,281.5957,268.9629,91.1186,8.2726e-06,6e-08,0.0,0 STARLINK-6296,1 56773U 23078G   24094.91046909  .00000006  00000-0  82726-5 0  9991,2 56773  69.9989 281.5957 0003003 268.9629  91.1186 14.98329560 48099,6950.194,96.107,574.146,569.972,0.0
56773.0,STARLINK-6296,PAYLOAD,2024-04-04 12:16:17,14.98328614,0.0003029,69.9987,280.0807,269.6155,90.4657,1.509e-06,-7.5e-07,0.0,0 STARLINK-6296,1 56773U 23078G   24095.51130988 -.00000075  00000-0  15090-5 0  9996,2 56773  69.9987 280.0807 0003029 269.6155  90.4657 14.98328614 48448,6950.197,96.107,574.167,569.957,0.0
56773.0,STARLINK-6296,PAYLOAD,2024-04-04 13:52:25,14.98328356,0.0003035,69.9987,279.9124,269.5563,90.5248,-5.2996e-07,-9.9e-07,0.0,0 STARLINK-6296,1 56773U 23078G   24095.57807008 -.00000099  00000-0 -52996-6 0  9990,2 56773  69.9987 279.9124 0003035 269.5563  90.5248 14.98328356 48198,6950.198,96.107,574.172,569.954,0.0
56773.0,STARLINK-6296,PAYLOAD,2024-04-04 21:53:05,14.98329387,0.0003049,69.9988,279.0706,269.5704,90.5106,-7.6464e-06,-1.84e-06,0.0,0 STARLINK-6296,1 56773U 23078G   24095.91186974 -.00000184  00000-0 -76464-5 0  9990,2 56773  69.9988 279.0706 0003049 269.5704  90.5106 14.98329387 48242,6950.195,96.107,574.179,569.941,0.0
56773.0,STARLINK-6296,PAYLOAD,2024-04-05 12:18:17,14.98332285,0.0003057,69.9988,277.5555,269.5546,90.5262,3.4456e-05,3.18e-06,0.0,0 STARLINK-6296,1 56773U 23078G   24096.51270608  .00000318  00000-0  34456-4 0  9996,2 56773  69.9988 277.5555 0003057 269.5546  90.5262 14.98332285 48592,6950.186,96.107,574.175,569.926,0.0
56773.0,STARLINK-6296,PAYLOAD,2024-04-05 13:54:25,14.98332555,0.000306,69.9988,277.3871,269.4962,90.5846,3.7267e-05,3.52e-06,0.0,0 STARLINK-6296,1 56773U 23078G   24096.57946568  .00000352  00000-0  37267-4 0  9998,2 56773  69.9988 277.3871 0003060 269.4962  90.5846 14.98332555 48347,6950.185,96.107,574.177,569.923,0.0
56773.0,STARLINK-6296,PAYLOAD,2024-04-05 21:55:05,14.98334117,0.0003075,69.999,276.5454,269.3787,90.7019,3.9342e-05,3.76e-06,0.0,0 STARLINK-6296,1 56773U 23078G   24096.91326386  .00000376  00000-0  39342-4 0  9998,2 56773  69.9990 276.5454 0003075 269.3787  90.7019 14.98334117 48393,6950.18,96.107,574.182,569.908,0.0
